{
  "type": "FeatureCollection",
  "features": [
    {
      "type": "Feature",
      "properties": {
        "id": 1,
        "name": "Building A",
        "type": "residential"
      },
      "geometry": {
        "type": "Polygon",
        "coordinates": [[
          [116.404, 39.915],
          [116.405, 39.915],
          [116.405, 39.916],
          [116.404, 39.916],
          [116.404, 39.915]
        ]]
      }
    },
    {
      "type": "Feature",
      "properties": {
        "id": 2,
        "name": "Building B",
        "type": "commercial"
      },
      "geometry": {
        "type": "Polygon",
        "coordinates": [[
          [116.406, 39.915],
          [116.407, 39.915],
          [116.407, 39.916],
          [116.406, 39.916],
          [116.406, 39.915]
        ]]
      }
    },
    {
      "type": "Feature",
      "properties": {
        "id": 3,
        "name": "Park C",
        "type": "park"
      },
      "geometry": {
        "type": "Polygon",
        "coordinates": [[
          [116.404, 39.917],
          [116.407, 39.917],
          [116.407, 39.918],
          [116.404, 39.918],
          [116.404, 39.917]
        ]]
      }
    }
  ]
}
