{
"type": "FeatureCollection",
"name": "poi_buffer_result",
"crs": { "type": "name", "properties": { "name": "urn:ogc:def:crs:EPSG::3857" } },
"features": [
{ "type": "Feature", "properties": { "id": 1, "name": "POI_1", "type": "park", "area": 784137.12263667549, "centroid_x": 13358338.89519283, "centroid_y": 3503549.8435043767 }, "geometry": { "type": "Polygon", "coordinates": [ [ [ 13358838.895192828029394, 3503549.843504375312477 ], [ 13358836.487556163221598, 3503500.834934210404754 ], [ 13358829.287833029404283, 3503452.298343367408961 ], [ 13358817.365360694006085, 3503404.701165748294443 ], [ 13358800.834959084168077, 3503358.50178819289431 ], [ 13358779.855825001373887, 3503314.145135962404311 ], [ 13358754.629998980090022, 3503272.058387865312397 ], [ 13358725.400419509038329, 3503232.646862293593585 ], [ 13358692.448583422228694, 3503196.2901137820445 ], [ 13358656.091834910213947, 3503163.338277693837881 ], [ 13358616.680309338495135, 3503134.108698224183172 ], [ 13358574.593561241403222, 3503108.882872201036662 ], [ 13358530.236909011378884, 3503087.903738119639456 ], [ 13358484.037531455978751, 3503071.373336509335786 ], [ 13358436.440353836864233, 3503059.450864173471928 ], [ 13358387.903762992471457, 3503052.251141039188951 ], [ 13358338.895192828029394, 3503049.843504375312477 ], [ 13358289.886622663587332, 3503052.251141039188951 ], [ 13358241.350031819194555, 3503059.450864173471928 ], [ 13358193.752854200080037, 3503071.373336509335786 ], [ 13358147.553476644679904, 3503087.903738119639456 ], [ 13358103.196824414655566, 3503108.882872201036662 ], [ 13358061.110076317563653, 3503134.108698224183172 ], [ 13358021.698550745844841, 3503163.338277693837881 ], [ 13357985.341802233830094, 3503196.2901137820445 ], [ 13357952.389966147020459, 3503232.646862293593585 ], [ 13357923.160386675968766, 3503272.058387865312397 ], [ 13357897.934560654684901, 3503314.145135962404311 ], [ 13357876.955426571890712, 3503358.50178819289431 ], [ 13357860.425024962052703, 3503404.701165748294443 ], [ 13357848.502552626654506, 3503452.298343367408961 ], [ 13357841.302829492837191, 3503500.834934210404754 ], [ 13357838.895192828029394, 3503549.843504375312477 ], [ 13357841.302829492837191, 3503598.852074540220201 ], [ 13357848.502552626654506, 3503647.388665383215994 ], [ 13357860.425024962052703, 3503694.985843002330512 ], [ 13357876.955426571890712, 3503741.185220557730645 ], [ 13357897.934560654684901, 3503785.541872788220644 ], [ 13357923.160386675968766, 3503827.628620885312557 ], [ 13357952.389966147020459, 3503867.040146457031369 ], [ 13357985.341802233830094, 3503903.396894968580455 ], [ 13358021.698550745844841, 3503936.348731056787074 ], [ 13358061.110076317563653, 3503965.578310526441783 ], [ 13358103.196824414655566, 3503990.804136549588293 ], [ 13358147.553476644679904, 3504011.783270630985498 ], [ 13358193.752854200080037, 3504028.313672241289169 ], [ 13358241.350031819194555, 3504040.236144577153027 ], [ 13358289.886622663587332, 3504047.435867711436003 ], [ 13358338.895192828029394, 3504049.843504375312477 ], [ 13358387.903762992471457, 3504047.435867711436003 ], [ 13358436.440353836864233, 3504040.236144577153027 ], [ 13358484.037531455978751, 3504028.313672241289169 ], [ 13358530.236909011378884, 3504011.783270630985498 ], [ 13358574.593561241403222, 3503990.804136549588293 ], [ 13358616.680309338495135, 3503965.578310526441783 ], [ 13358656.091834910213947, 3503936.348731056787074 ], [ 13358692.448583422228694, 3503903.396894968580455 ], [ 13358725.400419509038329, 3503867.040146457031369 ], [ 13358754.629998980090022, 3503827.628620885312557 ], [ 13358779.855825001373887, 3503785.541872788220644 ], [ 13358800.834959084168077, 3503741.185220557730645 ], [ 13358817.365360694006085, 3503694.985843002330512 ], [ 13358829.287833029404283, 3503647.388665383215994 ], [ 13358836.487556163221598, 3503598.852074540220201 ], [ 13358838.895192828029394, 3503549.843504375312477 ] ] ] } },
{ "type": "Feature", "properties": { "id": 2, "name": "POI_2", "type": "school", "area": 784137.12263667549, "centroid_x": 13359452.090100765, "centroid_y": 3504835.3150378191 }, "geometry": { "type": "Polygon", "coordinates": [ [ [ 13359952.090100763365626, 3504835.315037819091231 ], [ 13359949.68246409855783, 3504786.306467654183507 ], [ 13359942.482740964740515, 3504737.769876811187714 ], [ 13359930.560268629342318, 3504690.172699192073196 ], [ 13359914.029867019504309, 3504643.973321636673063 ], [ 13359893.050732936710119, 3504599.616669406183064 ], [ 13359867.824906915426254, 3504557.529921309091151 ], [ 13359838.595327444374561, 3504518.118395737372339 ], [ 13359805.643491357564926, 3504481.761647225823253 ], [ 13359769.286742845550179, 3504448.809811137616634 ], [ 13359729.875217273831367, 3504419.580231667961925 ], [ 13359687.788469176739454, 3504394.354405644815415 ], [ 13359643.431816946715117, 3504373.37527156341821 ], [ 13359597.232439391314983, 3504356.844869953114539 ], [ 13359549.635261772200465, 3504344.922397617250681 ], [ 13359501.098670927807689, 3504337.722674482967705 ], [ 13359452.090100763365626, 3504335.315037819091231 ], [ 13359403.081530598923564, 3504337.722674482967705 ], [ 13359354.544939754530787, 3504344.922397617250681 ], [ 13359306.947762135416269, 3504356.844869953114539 ], [ 13359260.748384580016136, 3504373.37527156341821 ], [ 13359216.391732349991798, 3504394.354405644815415 ], [ 13359174.304984252899885, 3504419.580231667961925 ], [ 13359134.893458681181073, 3504448.809811137616634 ], [ 13359098.536710169166327, 3504481.761647225823253 ], [ 13359065.584874082356691, 3504518.118395737372339 ], [ 13359036.355294611304998, 3504557.529921309091151 ], [ 13359011.129468590021133, 3504599.616669406183064 ], [ 13358990.150334507226944, 3504643.973321636673063 ], [ 13358973.619932897388935, 3504690.172699192073196 ], [ 13358961.697460561990738, 3504737.769876811187714 ], [ 13358954.497737428173423, 3504786.306467654183507 ], [ 13358952.090100763365626, 3504835.315037819091231 ], [ 13358954.497737428173423, 3504884.323607983998954 ], [ 13358961.697460561990738, 3504932.860198826994747 ], [ 13358973.619932897388935, 3504980.457376446109265 ], [ 13358990.150334507226944, 3505026.656754001509398 ], [ 13359011.129468590021133, 3505071.013406231999397 ], [ 13359036.355294611304998, 3505113.100154329091311 ], [ 13359065.584874082356691, 3505152.511679900810122 ], [ 13359098.536710169166327, 3505188.868428412359208 ], [ 13359134.893458681181073, 3505221.820264500565827 ], [ 13359174.304984252899885, 3505251.049843970220536 ], [ 13359216.391732349991798, 3505276.275669993367046 ], [ 13359260.748384580016136, 3505297.254804074764252 ], [ 13359306.947762135416269, 3505313.785205685067922 ], [ 13359354.544939754530787, 3505325.70767802093178 ], [ 13359403.081530598923564, 3505332.907401155214757 ], [ 13359452.090100763365626, 3505335.315037819091231 ], [ 13359501.098670927807689, 3505332.907401155214757 ], [ 13359549.635261772200465, 3505325.70767802093178 ], [ 13359597.232439391314983, 3505313.785205685067922 ], [ 13359643.431816946715117, 3505297.254804074764252 ], [ 13359687.788469176739454, 3505276.275669993367046 ], [ 13359729.875217273831367, 3505251.049843970220536 ], [ 13359769.286742845550179, 3505221.820264500565827 ], [ 13359805.643491357564926, 3505188.868428412359208 ], [ 13359838.595327444374561, 3505152.511679900810122 ], [ 13359867.824906915426254, 3505113.100154329091311 ], [ 13359893.050732936710119, 3505071.013406231999397 ], [ 13359914.029867019504309, 3505026.656754001509398 ], [ 13359930.560268629342318, 3504980.457376446109265 ], [ 13359942.482740964740515, 3504932.860198826994747 ], [ 13359949.68246409855783, 3504884.323607983998954 ], [ 13359952.090100763365626, 3504835.315037819091231 ] ] ] } },
{ "type": "Feature", "properties": { "id": 3, "name": "POI_3", "type": "hospital", "area": 784137.12263667549, "centroid_x": 13360565.285008691, "centroid_y": 3506120.9161626464 }, "geometry": { "type": "Polygon", "coordinates": [ [ [ 13361065.285008693113923, 3506120.916162646375597 ], [ 13361062.877372028306127, 3506071.907592481467873 ], [ 13361055.677648894488811, 3506023.37100163847208 ], [ 13361043.755176559090614, 3505975.773824019357562 ], [ 13361027.224774949252605, 3505929.574446463957429 ], [ 13361006.245640866458416, 3505885.21779423346743 ], [ 13360981.019814845174551, 3505843.131046136375517 ], [ 13360951.790235374122858, 3505803.719520564656705 ], [ 13360918.838399287313223, 3505767.362772053107619 ], [ 13360882.481650775298476, 3505734.410935964901 ], [ 13360843.070125203579664, 3505705.181356495246291 ], [ 13360800.983377106487751, 3505679.955530472099781 ], [ 13360756.626724876463413, 3505658.976396390702575 ], [ 13360710.42734732106328, 3505642.445994780398905 ], [ 13360662.830169701948762, 3505630.523522444535047 ], [ 13360614.293578857555985, 3505623.32379931025207 ], [ 13360565.285008693113923, 3505620.916162646375597 ], [ 13360516.276438528671861, 3505623.32379931025207 ], [ 13360467.739847684279084, 3505630.523522444535047 ], [ 13360420.142670065164566, 3505642.445994780398905 ], [ 13360373.943292509764433, 3505658.976396390702575 ], [ 13360329.586640279740095, 3505679.955530472099781 ], [ 13360287.499892182648182, 3505705.181356495246291 ], [ 13360248.08836661092937, 3505734.410935964901 ], [ 13360211.731618098914623, 3505767.362772053107619 ], [ 13360178.779782012104988, 3505803.719520564656705 ], [ 13360149.550202541053295, 3505843.131046136375517 ], [ 13360124.32437651976943, 3505885.21779423346743 ], [ 13360103.345242436975241, 3505929.574446463957429 ], [ 13360086.814840827137232, 3505975.773824019357562 ], [ 13360074.892368491739035, 3506023.37100163847208 ], [ 13360067.69264535792172, 3506071.907592481467873 ], [ 13360065.285008693113923, 3506120.916162646375597 ], [ 13360067.69264535792172, 3506169.92473281128332 ], [ 13360074.892368491739035, 3506218.461323654279113 ], [ 13360086.814840827137232, 3506266.058501273393631 ], [ 13360103.345242436975241, 3506312.257878828793764 ], [ 13360124.32437651976943, 3506356.614531059283763 ], [ 13360149.550202541053295, 3506398.701279156375676 ], [ 13360178.779782012104988, 3506438.112804728094488 ], [ 13360211.731618098914623, 3506474.469553239643574 ], [ 13360248.08836661092937, 3506507.421389327850193 ], [ 13360287.499892182648182, 3506536.650968797504902 ], [ 13360329.586640279740095, 3506561.876794820651412 ], [ 13360373.943292509764433, 3506582.855928902048618 ], [ 13360420.142670065164566, 3506599.386330512352288 ], [ 13360467.739847684279084, 3506611.308802848216146 ], [ 13360516.276438528671861, 3506618.508525982499123 ], [ 13360565.285008693113923, 3506620.916162646375597 ], [ 13360614.293578857555985, 3506618.508525982499123 ], [ 13360662.830169701948762, 3506611.308802848216146 ], [ 13360710.42734732106328, 3506599.386330512352288 ], [ 13360756.626724876463413, 3506582.855928902048618 ], [ 13360800.983377106487751, 3506561.876794820651412 ], [ 13360843.070125203579664, 3506536.650968797504902 ], [ 13360882.481650775298476, 3506507.421389327850193 ], [ 13360918.838399287313223, 3506474.469553239643574 ], [ 13360951.790235374122858, 3506438.112804728094488 ], [ 13360981.019814845174551, 3506398.701279156375676 ], [ 13361006.245640866458416, 3506356.614531059283763 ], [ 13361027.224774949252605, 3506312.257878828793764 ], [ 13361043.755176559090614, 3506266.058501273393631 ], [ 13361055.677648894488811, 3506218.461323654279113 ], [ 13361062.877372028306127, 3506169.92473281128332 ], [ 13361065.285008693113923, 3506120.916162646375597 ] ] ] } },
{ "type": "Feature", "properties": { "id": 4, "name": "POI_4", "type": "shop", "area": 784137.12263667549, "centroid_x": 13361678.479916628, "centroid_y": 3507406.646944161 }, "geometry": { "type": "Polygon", "coordinates": [ [ [ 13362178.479916628450155, 3507406.646944160107523 ], [ 13362176.072279963642359, 3507357.6383739951998 ], [ 13362168.872556829825044, 3507309.101783152204007 ], [ 13362156.950084494426847, 3507261.504605533089489 ], [ 13362140.419682884588838, 3507215.305227977689356 ], [ 13362119.440548801794648, 3507170.948575747199357 ], [ 13362094.214722780510783, 3507128.861827650107443 ], [ 13362064.98514330945909, 3507089.450302078388631 ], [ 13362032.033307222649455, 3507053.093553566839546 ], [ 13361995.676558710634708, 3507020.141717478632927 ], [ 13361956.265033138915896, 3506990.912138008978218 ], [ 13361914.178285041823983, 3506965.686311985831708 ], [ 13361869.821632811799645, 3506944.707177904434502 ], [ 13361823.622255256399512, 3506928.176776294130832 ], [ 13361776.025077637284994, 3506916.254303958266973 ], [ 13361727.488486792892218, 3506909.054580823983997 ], [ 13361678.479916628450155, 3506906.646944160107523 ], [ 13361629.471346464008093, 3506909.054580823983997 ], [ 13361580.934755619615316, 3506916.254303958266973 ], [ 13361533.337578, 3506928.176776294130832 ], [ 13361487.138200445100665, 3506944.707177904434502 ], [ 13361442.781548215076327, 3506965.686311985831708 ], [ 13361400.694800117984414, 3506990.912138008978218 ], [ 13361361.283274546265602, 3507020.141717478632927 ], [ 13361324.926526034250855, 3507053.093553566839546 ], [ 13361291.97468994744122, 3507089.450302078388631 ], [ 13361262.745110476389527, 3507128.861827650107443 ], [ 13361237.519284455105662, 3507170.948575747199357 ], [ 13361216.540150372311473, 3507215.305227977689356 ], [ 13361200.009748762473464, 3507261.504605533089489 ], [ 13361188.087276427075267, 3507309.101783152204007 ], [ 13361180.887553293257952, 3507357.6383739951998 ], [ 13361178.479916628450155, 3507406.646944160107523 ], [ 13361180.887553293257952, 3507455.655514325015247 ], [ 13361188.087276427075267, 3507504.192105168011039 ], [ 13361200.009748762473464, 3507551.789282787125558 ], [ 13361216.540150372311473, 3507597.988660342525691 ], [ 13361237.519284455105662, 3507642.34531257301569 ], [ 13361262.745110476389527, 3507684.432060670107603 ], [ 13361291.97468994744122, 3507723.843586241826415 ], [ 13361324.926526034250855, 3507760.2003347533755 ], [ 13361361.283274546265602, 3507793.152170841582119 ], [ 13361400.694800117984414, 3507822.381750311236829 ], [ 13361442.781548215076327, 3507847.607576334383339 ], [ 13361487.138200445100665, 3507868.586710415780544 ], [ 13361533.337578, 3507885.117112026084214 ], [ 13361580.934755619615316, 3507897.039584361948073 ], [ 13361629.471346464008093, 3507904.239307496231049 ], [ 13361678.479916628450155, 3507906.646944160107523 ], [ 13361727.488486792892218, 3507904.239307496231049 ], [ 13361776.025077637284994, 3507897.039584361948073 ], [ 13361823.622255256399512, 3507885.117112026084214 ], [ 13361869.821632811799645, 3507868.586710415780544 ], [ 13361914.178285041823983, 3507847.607576334383339 ], [ 13361956.265033138915896, 3507822.381750311236829 ], [ 13361995.676558710634708, 3507793.152170841582119 ], [ 13362032.033307222649455, 3507760.2003347533755 ], [ 13362064.98514330945909, 3507723.843586241826415 ], [ 13362094.214722780510783, 3507684.432060670107603 ], [ 13362119.440548801794648, 3507642.34531257301569 ], [ 13362140.419682884588838, 3507597.988660342525691 ], [ 13362156.950084494426847, 3507551.789282787125558 ], [ 13362168.872556829825044, 3507504.192105168011039 ], [ 13362176.072279963642359, 3507455.655514325015247 ], [ 13362178.479916628450155, 3507406.646944160107523 ] ] ] } },
{ "type": "Feature", "properties": { "id": 5, "name": "POI_5", "type": "restaurant", "area": 784137.12263667549, "centroid_x": 13362791.674824556, "centroid_y": 3508692.5074476893 }, "geometry": { "type": "Polygon", "coordinates": [ [ [ 13363291.674824560061097, 3508692.50744768884033 ], [ 13363289.267187895253301, 3508643.498877523932606 ], [ 13363282.067464761435986, 3508594.962286680936813 ], [ 13363270.144992426037788, 3508547.365109061822295 ], [ 13363253.61459081619978, 3508501.165731506422162 ], [ 13363232.63545673340559, 3508456.809079275932163 ], [ 13363207.409630712121725, 3508414.72233117884025 ], [ 13363178.180051241070032, 3508375.310805607121438 ], [ 13363145.228215154260397, 3508338.954057095572352 ], [ 13363108.87146664224565, 3508306.002221007365733 ], [ 13363069.459941070526838, 3508276.772641537711024 ], [ 13363027.373192973434925, 3508251.546815514564514 ], [ 13362983.016540743410587, 3508230.567681433167309 ], [ 13362936.817163188010454, 3508214.037279822863638 ], [ 13362889.219985568895936, 3508202.11480748699978 ], [ 13362840.68339472450316, 3508194.915084352716804 ], [ 13362791.674824560061097, 3508192.50744768884033 ], [ 13362742.666254395619035, 3508194.915084352716804 ], [ 13362694.129663551226258, 3508202.11480748699978 ], [ 13362646.53248593211174, 3508214.037279822863638 ], [ 13362600.333108376711607, 3508230.567681433167309 ], [ 13362555.976456146687269, 3508251.546815514564514 ], [ 13362513.889708049595356, 3508276.772641537711024 ], [ 13362474.478182477876544, 3508306.002221007365733 ], [ 13362438.121433965861797, 3508338.954057095572352 ], [ 13362405.169597879052162, 3508375.310805607121438 ], [ 13362375.940018408000469, 3508414.72233117884025 ], [ 13362350.714192386716604, 3508456.809079275932163 ], [ 13362329.735058303922415, 3508501.165731506422162 ], [ 13362313.204656694084406, 3508547.365109061822295 ], [ 13362301.282184358686209, 3508594.962286680936813 ], [ 13362294.082461224868894, 3508643.498877523932606 ], [ 13362291.674824560061097, 3508692.50744768884033 ], [ 13362294.082461224868894, 3508741.516017853748053 ], [ 13362301.282184358686209, 3508790.052608696743846 ], [ 13362313.204656694084406, 3508837.649786315858364 ], [ 13362329.735058303922415, 3508883.849163871258497 ], [ 13362350.714192386716604, 3508928.205816101748496 ], [ 13362375.940018408000469, 3508970.29256419884041 ], [ 13362405.169597879052162, 3509009.704089770559222 ], [ 13362438.121433965861797, 3509046.060838282108307 ], [ 13362474.478182477876544, 3509079.012674370314926 ], [ 13362513.889708049595356, 3509108.242253839969635 ], [ 13362555.976456146687269, 3509133.468079863116145 ], [ 13362600.333108376711607, 3509154.447213944513351 ], [ 13362646.53248593211174, 3509170.977615554817021 ], [ 13362694.129663551226258, 3509182.900087890680879 ], [ 13362742.666254395619035, 3509190.099811024963856 ], [ 13362791.674824560061097, 3509192.50744768884033 ], [ 13362840.68339472450316, 3509190.099811024963856 ], [ 13362889.219985568895936, 3509182.900087890680879 ], [ 13362936.817163188010454, 3509170.977615554817021 ], [ 13362983.016540743410587, 3509154.447213944513351 ], [ 13363027.373192973434925, 3509133.468079863116145 ], [ 13363069.459941070526838, 3509108.242253839969635 ], [ 13363108.87146664224565, 3509079.012674370314926 ], [ 13363145.228215154260397, 3509046.060838282108307 ], [ 13363178.180051241070032, 3509009.704089770559222 ], [ 13363207.409630712121725, 3508970.29256419884041 ], [ 13363232.63545673340559, 3508928.205816101748496 ], [ 13363253.61459081619978, 3508883.849163871258497 ], [ 13363270.144992426037788, 3508837.649786315858364 ], [ 13363282.067464761435986, 3508790.052608696743846 ], [ 13363289.267187895253301, 3508741.516017853748053 ], [ 13363291.674824560061097, 3508692.50744768884033 ] ] ] } },
{ "type": "Feature", "properties": { "id": 6, "name": "POI_6", "type": "park", "area": 784137.12263667549, "centroid_x": 13363904.869732488, "centroid_y": 3509978.4977385872 }, "geometry": { "type": "Polygon", "coordinates": [ [ [ 13364404.869732489809394, 3509978.497738587204367 ], [ 13364402.462095825001597, 3509929.489168422296643 ], [ 13364395.262372691184282, 3509880.952577579300851 ], [ 13364383.339900355786085, 3509833.355399960186332 ], [ 13364366.809498745948076, 3509787.156022404786199 ], [ 13364345.830364663153887, 3509742.7993701742962 ], [ 13364320.604538641870022, 3509700.712622077204287 ], [ 13364291.374959170818329, 3509661.301096505485475 ], [ 13364258.423123084008694, 3509624.94434799393639 ], [ 13364222.066374571993947, 3509591.992511905729771 ], [ 13364182.654849, 3509562.762932436075062 ], [ 13364140.568100903183222, 3509537.537106412928551 ], [ 13364096.211448673158884, 3509516.557972331531346 ], [ 13364050.012071117758751, 3509500.027570721227676 ], [ 13364002.414893498644233, 3509488.105098385363817 ], [ 13363953.878302654251456, 3509480.905375251080841 ], [ 13363904.869732489809394, 3509478.497738587204367 ], [ 13363855.861162325367332, 3509480.905375251080841 ], [ 13363807.324571480974555, 3509488.105098385363817 ], [ 13363759.727393861860037, 3509500.027570721227676 ], [ 13363713.528016306459904, 3509516.557972331531346 ], [ 13363669.171364076435566, 3509537.537106412928551 ], [ 13363627.084615979343653, 3509562.762932436075062 ], [ 13363587.673090407624841, 3509591.992511905729771 ], [ 13363551.316341895610094, 3509624.94434799393639 ], [ 13363518.364505808800459, 3509661.301096505485475 ], [ 13363489.134926337748766, 3509700.712622077204287 ], [ 13363463.909100316464901, 3509742.7993701742962 ], [ 13363442.929966233670712, 3509787.156022404786199 ], [ 13363426.399564623832703, 3509833.355399960186332 ], [ 13363414.477092288434505, 3509880.952577579300851 ], [ 13363407.27736915461719, 3509929.489168422296643 ], [ 13363404.869732489809394, 3509978.497738587204367 ], [ 13363407.27736915461719, 3510027.506308752112091 ], [ 13363414.477092288434505, 3510076.042899595107883 ], [ 13363426.399564623832703, 3510123.640077214222401 ], [ 13363442.929966233670712, 3510169.839454769622535 ], [ 13363463.909100316464901, 3510214.196107000112534 ], [ 13363489.134926337748766, 3510256.282855097204447 ], [ 13363518.364505808800459, 3510295.694380668923259 ], [ 13363551.316341895610094, 3510332.051129180472344 ], [ 13363587.673090407624841, 3510365.002965268678963 ], [ 13363627.084615979343653, 3510394.232544738333672 ], [ 13363669.171364076435566, 3510419.458370761480182 ], [ 13363713.528016306459904, 3510440.437504842877388 ], [ 13363759.727393861860037, 3510456.967906453181058 ], [ 13363807.324571480974555, 3510468.890378789044917 ], [ 13363855.861162325367332, 3510476.090101923327893 ], [ 13363904.869732489809394, 3510478.497738587204367 ], [ 13363953.878302654251456, 3510476.090101923327893 ], [ 13364002.414893498644233, 3510468.890378789044917 ], [ 13364050.012071117758751, 3510456.967906453181058 ], [ 13364096.211448673158884, 3510440.437504842877388 ], [ 13364140.568100903183222, 3510419.458370761480182 ], [ 13364182.654849, 3510394.232544738333672 ], [ 13364222.066374571993947, 3510365.002965268678963 ], [ 13364258.423123084008694, 3510332.051129180472344 ], [ 13364291.374959170818329, 3510295.694380668923259 ], [ 13364320.604538641870022, 3510256.282855097204447 ], [ 13364345.830364663153887, 3510214.196107000112534 ], [ 13364366.809498745948076, 3510169.839454769622535 ], [ 13364383.339900355786085, 3510123.640077214222401 ], [ 13364395.262372691184282, 3510076.042899595107883 ], [ 13364402.462095825001597, 3510027.506308752112091 ], [ 13364404.869732489809394, 3509978.497738587204367 ] ] ] } },
{ "type": "Feature", "properties": { "id": 7, "name": "POI_7", "type": "school", "area": 784137.12263667549, "centroid_x": 13365018.064640433, "centroid_y": 3511264.6178822429 }, "geometry": { "type": "Polygon", "coordinates": [ [ [ 13365518.064640427008271, 3511264.617882241029292 ], [ 13365515.657003762200475, 3511215.609312076121569 ], [ 13365508.45728062838316, 3511167.072721233125776 ], [ 13365496.534808292984962, 3511119.475543614011258 ], [ 13365480.004406683146954, 3511073.276166058611125 ], [ 13365459.025272600352764, 3511028.919513828121126 ], [ 13365433.799446579068899, 3510986.832765731029212 ], [ 13365404.569867108017206, 3510947.4212401593104 ], [ 13365371.618031021207571, 3510911.064491647761315 ], [ 13365335.261282509192824, 3510878.112655559554696 ], [ 13365295.849756937474012, 3510848.883076089899987 ], [ 13365253.763008840382099, 3510823.657250066753477 ], [ 13365209.406356610357761, 3510802.678115985356271 ], [ 13365163.206979054957628, 3510786.147714375052601 ], [ 13365115.60980143584311, 3510774.225242039188743 ], [ 13365067.073210591450334, 3510767.025518904905766 ], [ 13365018.064640427008271, 3510764.617882241029292 ], [ 13364969.056070262566209, 3510767.025518904905766 ], [ 13364920.519479418173432, 3510774.225242039188743 ], [ 13364872.922301799058914, 3510786.147714375052601 ], [ 13364826.722924243658781, 3510802.678115985356271 ], [ 13364782.366272013634443, 3510823.657250066753477 ], [ 13364740.27952391654253, 3510848.883076089899987 ], [ 13364700.867998344823718, 3510878.112655559554696 ], [ 13364664.511249832808971, 3510911.064491647761315 ], [ 13364631.559413745999336, 3510947.4212401593104 ], [ 13364602.329834274947643, 3510986.832765731029212 ], [ 13364577.104008253663778, 3511028.919513828121126 ], [ 13364556.124874170869589, 3511073.276166058611125 ], [ 13364539.59447256103158, 3511119.475543614011258 ], [ 13364527.672000225633383, 3511167.072721233125776 ], [ 13364520.472277091816068, 3511215.609312076121569 ], [ 13364518.064640427008271, 3511264.617882241029292 ], [ 13364520.472277091816068, 3511313.626452405937016 ], [ 13364527.672000225633383, 3511362.163043248932809 ], [ 13364539.59447256103158, 3511409.760220868047327 ], [ 13364556.124874170869589, 3511455.95959842344746 ], [ 13364577.104008253663778, 3511500.316250653937459 ], [ 13364602.329834274947643, 3511542.402998751029372 ], [ 13364631.559413745999336, 3511581.814524322748184 ], [ 13364664.511249832808971, 3511618.17127283429727 ], [ 13364700.867998344823718, 3511651.123108922503889 ], [ 13364740.27952391654253, 3511680.352688392158598 ], [ 13364782.366272013634443, 3511705.578514415305108 ], [ 13364826.722924243658781, 3511726.557648496702313 ], [ 13364872.922301799058914, 3511743.088050107005984 ], [ 13364920.519479418173432, 3511755.010522442869842 ], [ 13364969.056070262566209, 3511762.210245577152818 ], [ 13365018.064640427008271, 3511764.617882241029292 ], [ 13365067.073210591450334, 3511762.210245577152818 ], [ 13365115.60980143584311, 3511755.010522442869842 ], [ 13365163.206979054957628, 3511743.088050107005984 ], [ 13365209.406356610357761, 3511726.557648496702313 ], [ 13365253.763008840382099, 3511705.578514415305108 ], [ 13365295.849756937474012, 3511680.352688392158598 ], [ 13365335.261282509192824, 3511651.123108922503889 ], [ 13365371.618031021207571, 3511618.17127283429727 ], [ 13365404.569867108017206, 3511581.814524322748184 ], [ 13365433.799446579068899, 3511542.402998751029372 ], [ 13365459.025272600352764, 3511500.316250653937459 ], [ 13365480.004406683146954, 3511455.95959842344746 ], [ 13365496.534808292984962, 3511409.760220868047327 ], [ 13365508.45728062838316, 3511362.163043248932809 ], [ 13365515.657003762200475, 3511313.626452405937016 ], [ 13365518.064640427008271, 3511264.617882241029292 ] ] ] } },
{ "type": "Feature", "properties": { "id": 8, "name": "POI_8", "type": "hospital", "area": 784137.12263667549, "centroid_x": 13366131.259548353, "centroid_y": 3512550.8679440618 }, "geometry": { "type": "Polygon", "coordinates": [ [ [ 13366631.259548356756568, 3512550.867944060824811 ], [ 13366628.851911691948771, 3512501.859373895917088 ], [ 13366621.652188558131456, 3512453.322783052921295 ], [ 13366609.729716222733259, 3512405.725605433806777 ], [ 13366593.19931461289525, 3512359.526227878406644 ], [ 13366572.220180530101061, 3512315.169575647916645 ], [ 13366546.994354508817196, 3512273.082827550824732 ], [ 13366517.764775037765503, 3512233.67130197910592 ], [ 13366484.812938950955868, 3512197.314553467556834 ], [ 13366448.456190438941121, 3512164.362717379350215 ], [ 13366409.044664867222309, 3512135.133137909695506 ], [ 13366366.957916770130396, 3512109.907311886548996 ], [ 13366322.601264540106058, 3512088.92817780515179 ], [ 13366276.401886984705925, 3512072.39777619484812 ], [ 13366228.804709365591407, 3512060.475303858984262 ], [ 13366180.26811852119863, 3512053.275580724701285 ], [ 13366131.259548356756568, 3512050.867944060824811 ], [ 13366082.250978192314506, 3512053.275580724701285 ], [ 13366033.714387347921729, 3512060.475303858984262 ], [ 13365986.117209728807211, 3512072.39777619484812 ], [ 13365939.917832173407078, 3512088.92817780515179 ], [ 13365895.56117994338274, 3512109.907311886548996 ], [ 13365853.474431846290827, 3512135.133137909695506 ], [ 13365814.062906274572015, 3512164.362717379350215 ], [ 13365777.706157762557268, 3512197.314553467556834 ], [ 13365744.754321675747633, 3512233.67130197910592 ], [ 13365715.52474220469594, 3512273.082827550824732 ], [ 13365690.298916183412075, 3512315.169575647916645 ], [ 13365669.319782100617886, 3512359.526227878406644 ], [ 13365652.789380490779877, 3512405.725605433806777 ], [ 13365640.86690815538168, 3512453.322783052921295 ], [ 13365633.667185021564364, 3512501.859373895917088 ], [ 13365631.259548356756568, 3512550.867944060824811 ], [ 13365633.667185021564364, 3512599.876514225732535 ], [ 13365640.86690815538168, 3512648.413105068728328 ], [ 13365652.789380490779877, 3512696.010282687842846 ], [ 13365669.319782100617886, 3512742.209660243242979 ], [ 13365690.298916183412075, 3512786.566312473732978 ], [ 13365715.52474220469594, 3512828.653060570824891 ], [ 13365744.754321675747633, 3512868.064586142543703 ], [ 13365777.706157762557268, 3512904.421334654092789 ], [ 13365814.062906274572015, 3512937.373170742299408 ], [ 13365853.474431846290827, 3512966.602750211954117 ], [ 13365895.56117994338274, 3512991.828576235100627 ], [ 13365939.917832173407078, 3513012.807710316497833 ], [ 13365986.117209728807211, 3513029.338111926801503 ], [ 13366033.714387347921729, 3513041.260584262665361 ], [ 13366082.250978192314506, 3513048.460307396948338 ], [ 13366131.259548356756568, 3513050.867944060824811 ], [ 13366180.26811852119863, 3513048.460307396948338 ], [ 13366228.804709365591407, 3513041.260584262665361 ], [ 13366276.401886984705925, 3513029.338111926801503 ], [ 13366322.601264540106058, 3513012.807710316497833 ], [ 13366366.957916770130396, 3512991.828576235100627 ], [ 13366409.044664867222309, 3512966.602750211954117 ], [ 13366448.456190438941121, 3512937.373170742299408 ], [ 13366484.812938950955868, 3512904.421334654092789 ], [ 13366517.764775037765503, 3512868.064586142543703 ], [ 13366546.994354508817196, 3512828.653060570824891 ], [ 13366572.220180530101061, 3512786.566312473732978 ], [ 13366593.19931461289525, 3512742.209660243242979 ], [ 13366609.729716222733259, 3512696.010282687842846 ], [ 13366621.652188558131456, 3512648.413105068728328 ], [ 13366628.851911691948771, 3512599.876514225732535 ], [ 13366631.259548356756568, 3512550.867944060824811 ] ] ] } },
{ "type": "Feature", "properties": { "id": 9, "name": "POI_9", "type": "shop", "area": 784137.12263667549, "centroid_x": 13367244.454456296, "centroid_y": 3513837.2479894878 }, "geometry": { "type": "Polygon", "coordinates": [ [ [ 13367744.4544562920928, 3513837.247989487368613 ], [ 13367742.046819627285004, 3513788.23941932246089 ], [ 13367734.847096493467689, 3513739.702828479465097 ], [ 13367722.924624158069491, 3513692.105650860350579 ], [ 13367706.394222548231483, 3513645.906273304950446 ], [ 13367685.415088465437293, 3513601.549621074460447 ], [ 13367660.189262444153428, 3513559.462872977368534 ], [ 13367630.959682973101735, 3513520.051347405649722 ], [ 13367598.0078468862921, 3513483.694598894100636 ], [ 13367561.651098374277353, 3513450.742762805894017 ], [ 13367522.239572802558541, 3513421.513183336239308 ], [ 13367480.152824705466628, 3513396.287357313092798 ], [ 13367435.79617247544229, 3513375.308223231695592 ], [ 13367389.596794920042157, 3513358.777821621391922 ], [ 13367341.999617300927639, 3513346.855349285528064 ], [ 13367293.463026456534863, 3513339.655626151245087 ], [ 13367244.4544562920928, 3513337.247989487368613 ], [ 13367195.445886127650738, 3513339.655626151245087 ], [ 13367146.909295283257961, 3513346.855349285528064 ], [ 13367099.312117664143443, 3513358.777821621391922 ], [ 13367053.11274010874331, 3513375.308223231695592 ], [ 13367008.756087878718972, 3513396.287357313092798 ], [ 13366966.669339781627059, 3513421.513183336239308 ], [ 13366927.257814209908247, 3513450.742762805894017 ], [ 13366890.9010656978935, 3513483.694598894100636 ], [ 13366857.949229611083865, 3513520.051347405649722 ], [ 13366828.719650140032172, 3513559.462872977368534 ], [ 13366803.493824118748307, 3513601.549621074460447 ], [ 13366782.514690035954118, 3513645.906273304950446 ], [ 13366765.984288426116109, 3513692.105650860350579 ], [ 13366754.061816090717912, 3513739.702828479465097 ], [ 13366746.862092956900597, 3513788.23941932246089 ], [ 13366744.4544562920928, 3513837.247989487368613 ], [ 13366746.862092956900597, 3513886.256559652276337 ], [ 13366754.061816090717912, 3513934.79315049527213 ], [ 13366765.984288426116109, 3513982.390328114386648 ], [ 13366782.514690035954118, 3514028.589705669786781 ], [ 13366803.493824118748307, 3514072.94635790027678 ], [ 13366828.719650140032172, 3514115.033105997368693 ], [ 13366857.949229611083865, 3514154.444631569087505 ], [ 13366890.9010656978935, 3514190.801380080636591 ], [ 13366927.257814209908247, 3514223.75321616884321 ], [ 13366966.669339781627059, 3514252.982795638497919 ], [ 13367008.756087878718972, 3514278.208621661644429 ], [ 13367053.11274010874331, 3514299.187755743041635 ], [ 13367099.312117664143443, 3514315.718157353345305 ], [ 13367146.909295283257961, 3514327.640629689209163 ], [ 13367195.445886127650738, 3514334.84035282349214 ], [ 13367244.4544562920928, 3514337.247989487368613 ], [ 13367293.463026456534863, 3514334.84035282349214 ], [ 13367341.999617300927639, 3514327.640629689209163 ], [ 13367389.596794920042157, 3514315.718157353345305 ], [ 13367435.79617247544229, 3514299.187755743041635 ], [ 13367480.152824705466628, 3514278.208621661644429 ], [ 13367522.239572802558541, 3514252.982795638497919 ], [ 13367561.651098374277353, 3514223.75321616884321 ], [ 13367598.0078468862921, 3514190.801380080636591 ], [ 13367630.959682973101735, 3514154.444631569087505 ], [ 13367660.189262444153428, 3514115.033105997368693 ], [ 13367685.415088465437293, 3514072.94635790027678 ], [ 13367706.394222548231483, 3514028.589705669786781 ], [ 13367722.924624158069491, 3513982.390328114386648 ], [ 13367734.847096493467689, 3513934.79315049527213 ], [ 13367742.046819627285004, 3513886.256559652276337 ], [ 13367744.4544562920928, 3513837.247989487368613 ] ] ] } },
{ "type": "Feature", "properties": { "id": 10, "name": "POI_10", "type": "restaurant", "area": 784137.12263667549, "centroid_x": 13368357.649364224, "centroid_y": 3515123.758083987 }, "geometry": { "type": "Polygon", "coordinates": [ [ [ 13368857.649364223703742, 3515123.758083986118436 ], [ 13368855.241727558895946, 3515074.749513821210712 ], [ 13368848.04200442507863, 3515026.21292297821492 ], [ 13368836.119532089680433, 3514978.615745359100401 ], [ 13368819.589130479842424, 3514932.416367803700268 ], [ 13368798.609996397048235, 3514888.059715573210269 ], [ 13368773.38417037576437, 3514845.972967476118356 ], [ 13368744.154590904712677, 3514806.561441904399544 ], [ 13368711.202754817903042, 3514770.204693392850459 ], [ 13368674.846006305888295, 3514737.25285730464384 ], [ 13368635.434480734169483, 3514708.02327783498913 ], [ 13368593.34773263707757, 3514682.79745181184262 ], [ 13368548.991080407053232, 3514661.818317730445415 ], [ 13368502.791702851653099, 3514645.287916120141745 ], [ 13368455.194525232538581, 3514633.365443784277886 ], [ 13368406.657934388145804, 3514626.16572064999491 ], [ 13368357.649364223703742, 3514623.758083986118436 ], [ 13368308.64079405926168, 3514626.16572064999491 ], [ 13368260.104203214868903, 3514633.365443784277886 ], [ 13368212.507025595754385, 3514645.287916120141745 ], [ 13368166.307648040354252, 3514661.818317730445415 ], [ 13368121.950995810329914, 3514682.79745181184262 ], [ 13368079.864247713238001, 3514708.02327783498913 ], [ 13368040.452722141519189, 3514737.25285730464384 ], [ 13368004.095973629504442, 3514770.204693392850459 ], [ 13367971.144137542694807, 3514806.561441904399544 ], [ 13367941.914558071643114, 3514845.972967476118356 ], [ 13367916.688732050359249, 3514888.059715573210269 ], [ 13367895.70959796756506, 3514932.416367803700268 ], [ 13367879.179196357727051, 3514978.615745359100401 ], [ 13367867.256724022328854, 3515026.21292297821492 ], [ 13367860.057000888511539, 3515074.749513821210712 ], [ 13367857.649364223703742, 3515123.758083986118436 ], [ 13367860.057000888511539, 3515172.76665415102616 ], [ 13367867.256724022328854, 3515221.303244994021952 ], [ 13367879.179196357727051, 3515268.90042261313647 ], [ 13367895.70959796756506, 3515315.099800168536603 ], [ 13367916.688732050359249, 3515359.456452399026603 ], [ 13367941.914558071643114, 3515401.543200496118516 ], [ 13367971.144137542694807, 3515440.954726067837328 ], [ 13368004.095973629504442, 3515477.311474579386413 ], [ 13368040.452722141519189, 3515510.263310667593032 ], [ 13368079.864247713238001, 3515539.492890137247741 ], [ 13368121.950995810329914, 3515564.718716160394251 ], [ 13368166.307648040354252, 3515585.697850241791457 ], [ 13368212.507025595754385, 3515602.228251852095127 ], [ 13368260.104203214868903, 3515614.150724187958986 ], [ 13368308.64079405926168, 3515621.350447322241962 ], [ 13368357.649364223703742, 3515623.758083986118436 ], [ 13368406.657934388145804, 3515621.350447322241962 ], [ 13368455.194525232538581, 3515614.150724187958986 ], [ 13368502.791702851653099, 3515602.228251852095127 ], [ 13368548.991080407053232, 3515585.697850241791457 ], [ 13368593.34773263707757, 3515564.718716160394251 ], [ 13368635.434480734169483, 3515539.492890137247741 ], [ 13368674.846006305888295, 3515510.263310667593032 ], [ 13368711.202754817903042, 3515477.311474579386413 ], [ 13368744.154590904712677, 3515440.954726067837328 ], [ 13368773.38417037576437, 3515401.543200496118516 ], [ 13368798.609996397048235, 3515359.456452399026603 ], [ 13368819.589130479842424, 3515315.099800168536603 ], [ 13368836.119532089680433, 3515268.90042261313647 ], [ 13368848.04200442507863, 3515221.303244994021952 ], [ 13368855.241727558895946, 3515172.76665415102616 ], [ 13368857.649364223703742, 3515123.758083986118436 ] ] ] } }
]
}
